STARLINK-31414          
1 59418U 24064W   26068.02695073 -.00001660  00000+0 -50833-4 0  9994
2 59418  43.0051  59.9800 0001196 262.9326  97.1389 15.27569089109122
COSMOS 2576             
1 59773U 24092A   26068.82603826  .00015211  00000+0  56283-3 0  9991
2 59773  97.4253 186.0053 0005946 159.7731 200.3745 15.27760963101271
