[{"OBJECT_NAME":"STARLINK-31414","OBJECT_ID":"2024-064W","EPOCH":"2026-03-09T00:38:48.543072","MEAN_MOTION":15.27569089,"ECCENTRICITY":0.00011966,"INCLINATION":43.0051,"RA_OF_ASC_NODE":59.98,"ARG_OF_PERICENTER":262.9326,"MEAN_ANOMALY":97.1389,"EPHEMERIS_TYPE":0,"CLASSIFICATION_TYPE":"U","NORAD_CAT_ID":59418,"ELEMENT_SET_NO":999,"REV_AT_EPOCH":10912,"BSTAR":-5.0833461e-5,"MEAN_MOTION_DOT":-1.66e-5,"MEAN_MOTION_DDOT":0},{"OBJECT_NAME":"COSMOS 2576","OBJECT_ID":"2024-092A","EPOCH":"2026-03-09T19:49:29.705664","MEAN_MOTION":15.27760963,"ECCENTRICITY":0.0005946,"INCLINATION":97.4253,"RA_OF_ASC_NODE":186.0053,"ARG_OF_PERICENTER":159.7731,"MEAN_ANOMALY":200.3745,"EPHEMERIS_TYPE":0,"CLASSIFICATION_TYPE":"U","NORAD_CAT_ID":59773,"ELEMENT_SET_NO":999,"REV_AT_EPOCH":10127,"BSTAR":0.00056283,"MEAN_MOTION_DOT":0.00015211,"MEAN_MOTION_DDOT":0}]
